{
    "links": {
        "self": "http://www.neowsapp.com/rest/v1/neo/3610174?api_key=iIulBulltgU6a56xZRHN4H3l9WmuAYTsLGpBGhQ2"
    },
    "id": "3610174",
    "neo_reference_id": "3610174",
    "name": "(2012 TE79)",
    "designation": "2012 TE79",
    "nasa_jpl_url": "http://ssd.jpl.nasa.gov/sbdb.cgi?sstr=3610174",
    "absolute_magnitude_h": 26.6,
    "estimated_diameter": {
        "kilometers": {
            "estimated_diameter_min": 0.0127219879,
            "estimated_diameter_max": 0.0284472297
        },
        "meters": {
            "estimated_diameter_min": 12.7219878539,
            "estimated_diameter_max": 28.4472296503
        },
        "miles": {
            "estimated_diameter_min": 0.0079050743,
            "estimated_diameter_max": 0.0176762835
        },
        "feet": {
            "estimated_diameter_min": 41.7388066307,
            "estimated_diameter_max": 93.330808926
        }
    },
    "is_potentially_hazardous_asteroid": false,
    "close_approach_data": [
        {
            "close_approach_date": "2010-09-18",
            "close_approach_date_full": "2010-Sep-18 17:17",
            "epoch_date_close_approach": 1284830220000,
            "relative_velocity": {
                "kilometers_per_second": "22.0620182586",
                "kilometers_per_hour": "79423.2657310345",
                "miles_per_hour": "49350.5286427086"
            },
            "miss_distance": {
                "astronomical": "0.4277772059",
                "lunar": "166.4053330951",
                "kilometers": "63994558.837191433",
                "miles": "39764374.9628624554"
            },
            "orbiting_body": "Earth"
        },
        {
            "close_approach_date": "2012-10-17",
            "close_approach_date_full": "2012-Oct-17 18:21",
            "epoch_date_close_approach": 1350498060000,
            "relative_velocity": {
                "kilometers_per_second": "9.603454818",
                "kilometers_per_hour": "34572.4373446367",
                "miles_per_hour": "21481.9680822827"
            },
            "miss_distance": {
                "astronomical": "0.014703646",
                "lunar": "5.719718294",
                "kilometers": "2199634.12283402",
                "miles": "1366789.265068676"
            },
            "orbiting_body": "Earth"
        },
        {
            "close_approach_date": "2017-02-16",
            "close_approach_date_full": "2017-Feb-16 21:23",
            "epoch_date_close_approach": 1487280180000,
            "relative_velocity": {
                "kilometers_per_second": "20.9762299819",
                "kilometers_per_hour": "75514.427934903",
                "miles_per_hour": "46921.7288465513"
            },
            "miss_distance": {
                "astronomical": "0.3907397531",
                "lunar": "151.9977639559",
                "kilometers": "58453834.788085897",
                "miles": "36321528.6856514986"
            },
            "orbiting_body": "Earth"
        },
        {
            "close_approach_date": "2078-09-22",
            "close_approach_date_full": "2078-Sep-22 14:51",
            "epoch_date_close_approach": 3431083860000,
            "relative_velocity": {
                "kilometers_per_second": "20.309604708",
                "kilometers_per_hour": "73114.5769486783",
                "miles_per_hour": "45430.5547712496"
            },
            "miss_distance": {
                "astronomical": "0.3666952434",
                "lunar": "142.6444496826",
                "kilometers": "54856827.351771558",
                "miles": "34086451.9066131804"
            },
            "orbiting_body": "Earth"
        }
    ],
    "orbital_data": {
        "orbit_id": "8",
        "orbit_determination_date": "2017-04-06 08:48:40",
        "first_observation_date": "2012-10-09",
        "last_observation_date": "2012-10-14",
        "data_arc_in_days": 5,
        "observations_used": 28,
        "orbit_uncertainty": "8",
        "minimum_orbit_intersection": ".0122918",
        "jupiter_tisserand_invariant": "4.203",
        "epoch_osculation": "2456210.5",
        "eccentricity": ".447997481928772",
        "semi_major_axis": "1.623152573755148",
        "inclination": "3.280054068698705",
        "ascending_node_longitude": "13.68380400018359",
        "orbital_period": "755.331234382852",
        "perihelion_distance": ".8959843079266362",
        "perihelion_argument": "60.25846201429802",
        "aphelion_distance": "2.350320839583659",
        "perihelion_time": "2456256.027063271211",
        "mean_anomaly": "338.3012511179585",
        "mean_motion": ".4766120923016512",
        "equinox": "J2000",
        "orbit_class": {
            "orbit_class_type": "APO",
            "orbit_class_description": "Near-Earth asteroid orbits which cross the Earth’s orbit similar to that of 1862 Apollo",
            "orbit_class_range": "a (semi-major axis) > 1.0 AU; q (perihelion) < 1.017 AU"
        }
    },
    "is_sentry_object": false
}